start=new Date('2022-01-07T00:00:00.000Z').valueOf();
sats=[{"ARG_OF_PERICENTER":"65.3934","NORAD_CAT_ID":"47795","EPOCH":"2022-01-06T20:23:14.010144","RA_OF_ASC_NODE":"227.9180","BSTAR":"0.00006731600000","RCS_SIZE":"LARGE","REV_AT_EPOCH":"4740","CLASSIFICATION_TYPE":"U","TIME_SYSTEM":"UTC","PERIOD":"95.593","SEMIMAJOR_AXIS":"6925.396","REF_FRAME":"TEME","MEAN_MOTION":"15.06384666","COUNTRY_CODE":"US","ECCENTRICITY":"0.00022070","OBJECT_TYPE":"PAYLOAD","DECAY_DATE":null,"INCLINATION":"53.0554","MEAN_ELEMENT_THEORY":"SGP4","EPHEMERIS_TYPE":"0","ELEMENT_SET_NO":"999","SITE":"AFETR","CENTER_NAME":"EARTH","OBJECT_ID":"2021-018J","MEAN_MOTION_DDOT":"0.0000000000000","FILE":"3265870","APOAPSIS":"548.789","OBJECT_NAME":"STARLINK-2347","PERIAPSIS":"545.732","MEAN_ANOMALY":"294.7285","MEAN_MOTION_DOT":"0.00000721","GP_ID":"193353676","LAUNCH_DATE":"2021-03-11","TLE_LINE1":"1 47795U 21018J   22006.84946771  .00000721  00000-0  67316-4 0  9997","TLE_LINE2":"2 47795  53.0554 227.9180 0002207  65.3934 294.7285 15.06384666 47403"},{"TLE_LINE2":"2 47796  53.0541 227.8556 0002214  59.2956 300.8251 15.06395227 47351","TLE_LINE1":"1 47796U 21018K   22006.86419459 -.00000226  00000-0  37320-5 0  9992","LAUNCH_DATE":"2021-03-11","GP_ID":"193354928","MEAN_MOTION_DOT":"-0.00000226","MEAN_ANOMALY":"300.8251","PERIAPSIS":"545.695","OBJECT_NAME":"STARLINK-2373","APOAPSIS":"548.761","FILE":"3265870","MEAN_MOTION_DDOT":"0.0000000000000","OBJECT_ID":"2021-018K","SITE":"AFETR","CENTER_NAME":"EARTH","ELEMENT_SET_NO":"999","EPHEMERIS_TYPE":"0","MEAN_ELEMENT_THEORY":"SGP4","INCLINATION":"53.0541","DECAY_DATE":null,"OBJECT_TYPE":"PAYLOAD","ECCENTRICITY":"0.00022140","COUNTRY_CODE":"US","MEAN_MOTION":"15.06395227","REF_FRAME":"TEME","SEMIMAJOR_AXIS":"6925.363","PERIOD":"95.592","TIME_SYSTEM":"UTC","CLASSIFICATION_TYPE":"U","REV_AT_EPOCH":"4735","RCS_SIZE":"LARGE","BSTAR":"0.00000373200000","RA_OF_ASC_NODE":"227.8556","EPOCH":"2022-01-06T20:44:26.412576","NORAD_CAT_ID":"47796","ARG_OF_PERICENTER":"59.2956"},{"EPHEMERIS_TYPE":"0","SITE":"AFETR","ELEMENT_SET_NO":"999","CENTER_NAME":"EARTH","DECAY_DATE":null,"INCLINATION":"53.0536","MEAN_ELEMENT_THEORY":"SGP4","OBJECT_ID":"2021-018L","RCS_SIZE":"LARGE","REV_AT_EPOCH":"4700","ARG_OF_PERICENTER":"60.4767","NORAD_CAT_ID":"47797","EPOCH":"2022-01-06T21:36:51.909120","BSTAR":"0.00005184000000","RA_OF_ASC_NODE":"252.6734","SEMIMAJOR_AXIS":"6925.364","REF_FRAME":"TEME","MEAN_MOTION":"15.06394967","COUNTRY_CODE":"US","ECCENTRICITY":"0.00020220","OBJECT_TYPE":"PAYLOAD","CLASSIFICATION_TYPE":"U","TIME_SYSTEM":"UTC","PERIOD":"95.592","LAUNCH_DATE":"2021-03-11","TLE_LINE2":"2 47797  53.0536 252.6734 0002022  60.4767 299.6424 15.06394967 47000","TLE_LINE1":"1 47797U 21018L   22006.90060080  .00000490  00000-0  51840-4 0  9994","MEAN_MOTION_DDOT":"0.0000000000000","APOAPSIS":"548.629","FILE":"3265870","MEAN_MOTION_DOT":"0.00000490","GP_ID":"193354678","OBJECT_NAME":"STARLINK-2377","MEAN_ANOMALY":"299.6424","PERIAPSIS":"545.829"},{"OBJECT_ID":"2021-018M","DECAY_DATE":null,"MEAN_ELEMENT_THEORY":"SGP4","INCLINATION":"53.0550","EPHEMERIS_TYPE":"0","CENTER_NAME":"EARTH","SITE":"AFETR","ELEMENT_SET_NO":"999","CLASSIFICATION_TYPE":"U","PERIOD":"95.593","TIME_SYSTEM":"UTC","COUNTRY_CODE":"US","MEAN_MOTION":"15.06389112","REF_FRAME":"TEME","SEMIMAJOR_AXIS":"6925.382","OBJECT_TYPE":"PAYLOAD","ECCENTRICITY":"0.00022760","NORAD_CAT_ID":"47798","ARG_OF_PERICENTER":"61.7181","BSTAR":"0.00004843100000","RA_OF_ASC_NODE":"227.7961","EPOCH":"2022-01-06T21:00:23.000544","RCS_SIZE":"LARGE","REV_AT_EPOCH":"4735","TLE_LINE1":"1 47798U 21018M   22006.87526621  .00000439  00000-0  48431-4 0  9994","TLE_LINE2":"2 47798  53.0550 227.7961 0002276  61.7181 298.4038 15.06389112 47359","LAUNCH_DATE":"2021-03-11","OBJECT_NAME":"STARLINK-2379","PERIAPSIS":"545.671","MEAN_ANOMALY":"298.4038","GP_ID":"193353927","MEAN_MOTION_DOT":"0.00000439","MEAN_MOTION_DDOT":"0.0000000000000","FILE":"3265870","APOAPSIS":"548.823"},{"ELEMENT_SET_NO":"999","SITE":"AFETR","CENTER_NAME":"EARTH","EPHEMERIS_TYPE":"0","INCLINATION":"53.0541","MEAN_ELEMENT_THEORY":"SGP4","DECAY_DATE":null,"OBJECT_ID":"2021-018N","REV_AT_EPOCH":"4734","RCS_SIZE":"LARGE","EPOCH":"2022-01-06T20:55:04.458432","BSTAR":"-0.00002926100000","RA_OF_ASC_NODE":"227.8266","ARG_OF_PERICENTER":"62.0102","NORAD_CAT_ID":"47799","ECCENTRICITY":"0.00021090","OBJECT_TYPE":"PAYLOAD","REF_FRAME":"TEME","SEMIMAJOR_AXIS":"6925.391","COUNTRY_CODE":"US","MEAN_MOTION":"15.06386309","TIME_SYSTEM":"UTC","PERIOD":"95.593","CLASSIFICATION_TYPE":"U","LAUNCH_DATE":"2021-03-11","TLE_LINE2":"2 47799  53.0541 227.8266 0002109  62.0102 298.1101 15.06386309 47343","TLE_LINE1":"1 47799U 21018N   22006.87157938 -.00000717  00000-0 -29261-4 0  9997","FILE":"3265870","APOAPSIS":"548.716","MEAN_MOTION_DDOT":"0.0000000000000","MEAN_MOTION_DOT":"-0.00000717","GP_ID":"193354177","MEAN_ANOMALY":"298.1101","PERIAPSIS":"545.795","OBJECT_NAME":"STARLINK-2380"},{"MEAN_MOTION_DOT":"-0.00001017","GP_ID":"193354428","OBJECT_NAME":"STARLINK-2381","MEAN_ANOMALY":"297.9362","PERIAPSIS":"545.785","MEAN_MOTION_DDOT":"0.0000000000000","APOAPSIS":"548.686","FILE":"3265870","TLE_LINE2":"2 47800  53.0553 227.7200 0002095  62.1839 297.9362 15.06392873 47358","TLE_LINE1":"1 47800U 21018P   22006.89369514 -.00001017  00000-0 -49407-4 0  9995","LAUNCH_DATE":"2021-03-11","SEMIMAJOR_AXIS":"6925.370","REF_FRAME":"TEME","COUNTRY_CODE":"US","MEAN_MOTION":"15.06392873","ECCENTRICITY":"0.00020950","OBJECT_TYPE":"PAYLOAD","CLASSIFICATION_TYPE":"U","TIME_SYSTEM":"UTC","PERIOD":"95.593","RCS_SIZE":"LARGE","REV_AT_EPOCH":"4735","ARG_OF_PERICENTER":"62.1839","NORAD_CAT_ID":"47800","EPOCH":"2022-01-06T21:26:55.260096","RA_OF_ASC_NODE":"227.7200","BSTAR":"-0.00004940700000","OBJECT_ID":"2021-018P","EPHEMERIS_TYPE":"0","SITE":"AFETR","CENTER_NAME":"EARTH","ELEMENT_SET_NO":"999","DECAY_DATE":null,"INCLINATION":"53.0553","MEAN_ELEMENT_THEORY":"SGP4"},{"GP_ID":"193355179","MEAN_MOTION_DOT":"0.00000875","OBJECT_NAME":"STARLINK-2382","PERIAPSIS":"545.622","MEAN_ANOMALY":"300.8248","MEAN_MOTION_DDOT":"0.0000000000000","FILE":"3265870","APOAPSIS":"548.886","TLE_LINE2":"2 47801  53.0550 232.9831 0002357  59.2973 300.8248 15.06386778 47287","TLE_LINE1":"1 47801U 21018Q   22006.86190353  .00000875  00000-0  77650-4 0  9996","LAUNCH_DATE":"2021-03-11","MEAN_MOTION":"15.06386778","COUNTRY_CODE":"US","SEMIMAJOR_AXIS":"6925.389","REF_FRAME":"TEME","OBJECT_TYPE":"PAYLOAD","ECCENTRICITY":"0.00023570","CLASSIFICATION_TYPE":"U","PERIOD":"95.593","TIME_SYSTEM":"UTC","RCS_SIZE":"MEDIUM","REV_AT_EPOCH":"4728","NORAD_CAT_ID":"47801","ARG_OF_PERICENTER":"59.2973","BSTAR":"0.00007765000000","RA_OF_ASC_NODE":"232.9831","EPOCH":"2022-01-06T20:41:08.464992","OBJECT_ID":"2021-018Q","EPHEMERIS_TYPE":"0","SITE":"AFETR","CENTER_NAME":"EARTH","ELEMENT_SET_NO":"999","DECAY_DATE":null,"MEAN_ELEMENT_THEORY":"SGP4","INCLINATION":"53.0550"},{"MEAN_ELEMENT_THEORY":"SGP4","INCLINATION":"53.0485","DECAY_DATE":null,"SITE":"AFETR","ELEMENT_SET_NO":"999","CENTER_NAME":"EARTH","EPHEMERIS_TYPE":"0","OBJECT_ID":"2021-018R","RA_OF_ASC_NODE":"252.6656","BSTAR":"-0.00003222700000","EPOCH":"2022-01-06T21:47:29.501376","NORAD_CAT_ID":"47802","ARG_OF_PERICENTER":"111.8807","REV_AT_EPOCH":"4701","RCS_SIZE":"LARGE","PERIOD":"95.593","TIME_SYSTEM":"UTC","CLASSIFICATION_TYPE":"U","OBJECT_TYPE":"PAYLOAD","ECCENTRICITY":"0.00015120","MEAN_MOTION":"15.06388812","COUNTRY_CODE":"US","REF_FRAME":"TEME","SEMIMAJOR_AXIS":"6925.383","LAUNCH_DATE":"2021-03-11","TLE_LINE1":"1 47802U 21018R   22006.90798034 -.00000761  00000-0 -32227-4 0  9999","TLE_LINE2":"2 47802  53.0485 252.6656 0001512 111.8807 248.2343 15.06388812 47015","FILE":"3265870","APOAPSIS":"548.295","MEAN_MOTION_DDOT":"0.0000000000000","MEAN_ANOMALY":"248.2343","PERIAPSIS":"546.201","OBJECT_NAME":"STARLINK-2383","GP_ID":"193353427","MEAN_MOTION_DOT":"-0.00000761"},{"TLE_LINE2":"2 47803  53.0539 227.9698 0002160  62.6998 297.4210 15.06400850 47343","TLE_LINE1":"1 47803U 21018S   22006.83839418  .00000729  00000-0  67841-4 0  9996","LAUNCH_DATE":"2021-03-11","GP_ID":"193353677","MEAN_MOTION_DOT":"0.00000729","OBJECT_NAME":"STARLINK-2384","PERIAPSIS":"545.715","MEAN_ANOMALY":"297.4210","MEAN_MOTION_DDOT":"0.0000000000000","FILE":"3265870","APOAPSIS":"548.707","OBJECT_ID":"2021-018S","EPHEMERIS_TYPE":"0","ELEMENT_SET_NO":"999","SITE":"AFETR","CENTER_NAME":"EARTH","DECAY_DATE":null,"MEAN_ELEMENT_THEORY":"SGP4","INCLINATION":"53.0539","MEAN_MOTION":"15.06400850","COUNTRY_CODE":"US","SEMIMAJOR_AXIS":"6925.346","REF_FRAME":"TEME","OBJECT_TYPE":"PAYLOAD","ECCENTRICITY":"0.00021600","CLASSIFICATION_TYPE":"U","PERIOD":"95.592","TIME_SYSTEM":"UTC","RCS_SIZE":"LARGE","REV_AT_EPOCH":"4734","NORAD_CAT_ID":"47803","ARG_OF_PERICENTER":"62.6998","RA_OF_ASC_NODE":"227.9698","BSTAR":"0.00006784100000","EPOCH":"2022-01-06T20:07:17.257152"},{"LAUNCH_DATE":"2021-03-11","TLE_LINE2":"2 47804  53.0548 227.8935 0002102  67.0369 293.0842 15.06390845 47349","TLE_LINE1":"1 47804U 21018T   22006.85315078  .00000863  00000-0  76869-4 0  9999","MEAN_MOTION_DDOT":"0.0000000000000","APOAPSIS":"548.697","FILE":"3265870","GP_ID":"193354929","MEAN_MOTION_DOT":"0.00000863","OBJECT_NAME":"STARLINK-2385","MEAN_ANOMALY":"293.0842","PERIAPSIS":"545.786","EPHEMERIS_TYPE":"0","SITE":"AFETR","ELEMENT_SET_NO":"999","CENTER_NAME":"EARTH","DECAY_DATE":null,"MEAN_ELEMENT_THEORY":"SGP4","INCLINATION":"53.0548","OBJECT_ID":"2021-018T","RCS_SIZE":"LARGE","REV_AT_EPOCH":"4734","NORAD_CAT_ID":"47804","ARG_OF_PERICENTER":"67.0369","BSTAR":"0.00007686900000","RA_OF_ASC_NODE":"227.8935","EPOCH":"2022-01-06T20:28:32.227392","MEAN_MOTION":"15.06390845","COUNTRY_CODE":"US","REF_FRAME":"TEME","SEMIMAJOR_AXIS":"6925.377","OBJECT_TYPE":"PAYLOAD","ECCENTRICITY":"0.00021020","CLASSIFICATION_TYPE":"U","PERIOD":"95.593","TIME_SYSTEM":"UTC"}];
